[{"OBJECT_NAME":"KOSEN-1","OBJECT_ID":"2021-102H","EPOCH":"2026-03-09T22:29:54.100608","MEAN_MOTION":15.25323573,"ECCENTRICITY":0.00138659,"INCLINATION":97.3334,"RA_OF_ASC_NODE":113.0569,"ARG_OF_PERICENTER":191.9191,"MEAN_ANOMALY":168.1721,"EPHEMERIS_TYPE":0,"CLASSIFICATION_TYPE":"U","NORAD_CAT_ID":49402,"ELEMENT_SET_NO":999,"REV_AT_EPOCH":23888,"BSTAR":0.00040411561,"MEAN_MOTION_DOT":0.00010142,"MEAN_MOTION_DDOT":0},{"OBJECT_NAME":"STARLINK-33701","OBJECT_ID":"2025-070E","EPOCH":"2026-03-09T13:40:12.204480","MEAN_MOTION":15.27601059,"ECCENTRICITY":0.0001173,"INCLINATION":43.0001,"RA_OF_ASC_NODE":260.8607,"ARG_OF_PERICENTER":224.1613,"MEAN_ANOMALY":135.9145,"EPHEMERIS_TYPE":0,"CLASSIFICATION_TYPE":"U","NORAD_CAT_ID":63464,"ELEMENT_SET_NO":999,"REV_AT_EPOCH":5295,"BSTAR":0.0012407759,"MEAN_MOTION_DOT":0.00034061,"MEAN_MOTION_DDOT":0}]
